{
    "links": {
        "self": "http://www.neowsapp.com/rest/v1/neo/3785782?api_key=iIulBulltgU6a56xZRHN4H3l9WmuAYTsLGpBGhQ2"
    },
    "id": "3785782",
    "neo_reference_id": "3785782",
    "name": "(2017 TY4)",
    "designation": "2017 TY4",
    "nasa_jpl_url": "http://ssd.jpl.nasa.gov/sbdb.cgi?sstr=3785782",
    "absolute_magnitude_h": 21.0,
    "estimated_diameter": {
        "kilometers": {
            "estimated_diameter_min": 0.1677084622,
            "estimated_diameter_max": 0.3750075218
        },
        "meters": {
            "estimated_diameter_min": 167.7084621628,
            "estimated_diameter_max": 375.0075217981
        },
        "miles": {
            "estimated_diameter_min": 0.1042091748,
            "estimated_diameter_max": 0.2330187988
        },
        "feet": {
            "estimated_diameter_min": 550.2246310023,
            "estimated_diameter_max": 1230.3396778159
        }
    },
    "is_potentially_hazardous_asteroid": false,
    "close_approach_data": [
        {
            "close_approach_date": "2017-11-09",
            "close_approach_date_full": "2017-Nov-09 20:14",
            "epoch_date_close_approach": 1510258440000,
            "relative_velocity": {
                "kilometers_per_second": "20.9793989097",
                "kilometers_per_hour": "75525.836074942",
                "miles_per_hour": "46928.8174211216"
            },
            "miss_distance": {
                "astronomical": "0.2181378052",
                "lunar": "84.8556062228",
                "kilometers": "32632951.024394924",
                "miles": "20277175.5014369912"
            },
            "orbiting_body": "Earth"
        },
        {
            "close_approach_date": "2021-06-17",
            "close_approach_date_full": "2021-Jun-17 22:14",
            "epoch_date_close_approach": 1623968040000,
            "relative_velocity": {
                "kilometers_per_second": "10.752638368",
                "kilometers_per_hour": "38709.4981246682",
                "miles_per_hour": "24052.5767652973"
            },
            "miss_distance": {
                "astronomical": "1.4464265201",
                "lunar": "562.6599163189",
                "kilometers": "216382326.518472187",
                "miles": "134453742.9956707006"
            },
            "orbiting_body": "Juptr"
        }
    ],
    "orbital_data": {
        "orbit_id": "5",
        "orbit_determination_date": "2017-11-15 06:24:22",
        "first_observation_date": "2017-10-12",
        "last_observation_date": "2017-11-15",
        "data_arc_in_days": 34,
        "observations_used": 42,
        "orbit_uncertainty": "7",
        "minimum_orbit_intersection": ".0893688",
        "jupiter_tisserand_invariant": "2.744",
        "epoch_osculation": "2459000.5",
        "eccentricity": ".7664314427384651",
        "semi_major_axis": "2.808543913627309",
        "inclination": "19.25768235821032",
        "ascending_node_longitude": "8.846999924763308",
        "orbital_period": "1719.17566484889",
        "perihelion_distance": ".6559875499115955",
        "perihelion_argument": "119.722839303935",
        "aphelion_distance": "4.961100277343022",
        "perihelion_time": "2459834.037263676049",
        "mean_anomaly": "185.4550590385694",
        "mean_motion": ".2094026848801649",
        "equinox": "J2000",
        "orbit_class": {
            "orbit_class_type": "APO",
            "orbit_class_description": "Near-Earth asteroid orbits which cross the Earth’s orbit similar to that of 1862 Apollo",
            "orbit_class_range": "a (semi-major axis) > 1.0 AU; q (perihelion) < 1.017 AU"
        }
    },
    "is_sentry_object": false
}